[{"OBJECT_ID":"2005-052A","OBJECT_NAME":"EUTE 172A (GE 23)","NORAD_CAT_ID":"28924","OBJECT_TYPE":"PAYLOAD","PERIOD":"1436.111","INCLINATION":"0.0672","APOGEE":"35809.554","PERIGEE":"35764.210","ECCENTRICITY":"0.0005377","MEAN_MOTION":"1.00270766","TLE_LINE1":"1 28924U 05052A   16238.59601903 -.00000033  00000-0  00000+0 0  9996","TLE_LINE2":"2 28924   0.0672 357.1297 0005377 165.9277 197.7743  1.00270766 39060","LAUNCH_DATE":"2005-12-29","LAUNCH_SITE":"TYURATAM MISSILE AND SPACE COMPLEX","OWNER":"EUROPEAN TELECOMMUNICATIONS SATELLITE ORGANIZATION (EUTELSAT)","ORBIT_TYPE":"Geosynchronous","OPERATIONAL_STATUS":"Operational","satInfo":{"lng":90.75526772689332,"lat":0.11372943893068288,"elevation":-8.46543525504267,"azimuth":224.24473227310668,"range":42615.46108462051,"height":35773.10529071611,"velocity":3.0744142270611876},"x":358,"y":5},{"OBJECT_ID":"2006-003A","OBJECT_NAME":"ECHOSTAR 10","NORAD_CAT_ID":"28935","OBJECT_TYPE":"PAYLOAD","PERIOD":"1436.085","INCLINATION":"0.0627","APOGEE":"35794.609","PERIGEE":"35778.139","ECCENTRICITY":"0.0001953","MEAN_MOTION":"1.00272579","TLE_LINE1":"1 28935U 06003A   16239.21927689 -.00000084  00000-0  00000+0 0  9993","TLE_LINE2":"2 28935   0.0627 287.5997 0001953 260.4299 115.6138  1.00272579 38594","LAUNCH_DATE":"2006-02-15","LAUNCH_SITE":"SEA LAUNCH","OWNER":"UNITED STATES OF AMERICA","ORBIT_TYPE":"Geosynchronous","OPERATIONAL_STATUS":"Operational","satInfo":{"lng":-104.91488580453071,"lat":-2.187427572285888,"elevation":-10.70677595728248,"azimuth":59.91488580453066,"range":42869.6926909098,"height":35775.91593136528,"velocity":3.075353287947596},"x":-346,"y":92},{"OBJECT_ID":"2006-004A","OBJECT_NAME":"MTSAT 2","NORAD_CAT_ID":"28937","OBJECT_TYPE":"PAYLOAD","PERIOD":"1436.106","INCLINATION":"0.0319","APOGEE":"35801.823","PERIGEE":"35771.742","ECCENTRICITY":"0.0003567","MEAN_MOTION":"1.00271121","TLE_LINE1":"1 28937U 06004A   16238.92132579 -.00000271 +00000-0 +00000-0 0  9998","TLE_LINE2":"2 28937 000.0319 090.9699 0003567 053.9453 306.3444 01.00271121038567","LAUNCH_DATE":"2006-02-18","LAUNCH_SITE":"TANEGASHIMA SPACE CENTER","OWNER":"JAPAN","ORBIT_TYPE":"Geosynchronous","OPERATIONAL_STATUS":"Operational","satInfo":{"lng":-61.46639977660492,"lat":1.0116668608267925,"elevation":-7.580872665098418,"azimuth":16.46639977660492,"range":42547.55330848855,"height":35804.10392530806,"velocity":3.074299682722515},"x":-315,"y":-171},{"OBJECT_ID":"2006-007A","OBJECT_NAME":"SPAINSAT","NORAD_CAT_ID":"28945","OBJECT_TYPE":"PAYLOAD","PERIOD":"1436.082","INCLINATION":"0.0562","APOGEE":"35807.218","PERIGEE":"35765.399","ECCENTRICITY":"0.0004959","MEAN_MOTION":"1.00272813","TLE_LINE1":"1 28945U 06007A   16239.15320924 -.00000244  00000-0  00000+0 0  9998","TLE_LINE2":"2 28945   0.0562 257.7994 0004959 279.2816 182.9149  1.00272813 38311","LAUNCH_DATE":"2006-03-11","LAUNCH_SITE":"FRENCH GUIANA","OWNER":"SPAIN","ORBIT_TYPE":"Geosynchronous","OPERATIONAL_STATUS":"Operational","satInfo":{"lng":-50.17025180705897,"lat":-0.033610285580206324,"elevation":-8.613328595387339,"azimuth":5.170251807058915,"range":42612.07247792425,"height":35753.34536643883,"velocity":3.076481214362522},"x":-275,"y":-229},{"OBJECT_ID":"2006-007B","OBJECT_NAME":"EUTE 9A (HB 7A)","NORAD_CAT_ID":"28946","OBJECT_TYPE":"PAYLOAD","PERIOD":"1436.070","INCLINATION":"0.021","APOGEE":"35813.764","PERIGEE":"35758.386","ECCENTRICITY":"0.0006567","MEAN_MOTION":"1.00273645","TLE_LINE1":"1 28946U 06007B   16239.03420172  .00000059  00000-0  00000+0 0  9995","TLE_LINE2":"2 28946   0.0210 133.1060 0006567  36.6049 190.2959  1.00273645 38385","LAUNCH_DATE":"2006-03-11","LAUNCH_SITE":"FRENCH GUIANA","OWNER":"EUROPEAN TELECOMMUNICATIONS SATELLITE ORGANIZATION (EUTELSAT)","ORBIT_TYPE":"Geosynchronous","OPERATIONAL_STATUS":"Operational","satInfo":{"lng":15.133005850222137,"lat":-0.2775055055708788,"elevation":-8.84388330687631,"azimuth":299.86699414977784,"range":42676.22292883274,"height":35791.19894652969,"velocity":3.074125606442504},"x":93,"y":-346},{"OBJECT_ID":"2006-010A","OBJECT_NAME":"JCSAT 9","NORAD_CAT_ID":"29045","OBJECT_TYPE":"PAYLOAD","PERIOD":"1436.161","INCLINATION":"0.0207","APOGEE":"35792.260","PERIGEE":"35783.473","ECCENTRICITY":"0.0001042","MEAN_MOTION":"1.00267255","TLE_LINE1":"1 29045U 06010A   16238.81438253 -.00000356  00000-0  00000+0 0  9995","TLE_LINE2":"2 29045   0.0207 114.3116 0001042  55.6940 229.7041  1.00267255 38020","LAUNCH_DATE":"2006-04-12","LAUNCH_SITE":"SEA LAUNCH","OWNER":"JAPAN","ORBIT_TYPE":"Geosynchronous","OPERATIONAL_STATUS":"Operational","satInfo":{"lng":126.8921058611139,"lat":-1.4267345545047976,"elevation":-9.962328897876542,"azimuth":188.1078941388861,"range":42810.4442374796,"height":35799.86175502142,"velocity":3.0740958408674826},"x":286,"y":215},{"OBJECT_ID":"2006-012A","OBJECT_NAME":"ASTRA 1KR","NORAD_CAT_ID":"29055","OBJECT_TYPE":"PAYLOAD","PERIOD":"1436.067","INCLINATION":"0.0925","APOGEE":"35804.150","PERIGEE":"35767.872","ECCENTRICITY":"0.0004302","MEAN_MOTION":"1.00273872","TLE_LINE1":"1 29055U 06012A   16239.00535610  .00000092  00000-0  00000+0 0  9991","TLE_LINE2":"2 29055   0.0925 277.8934 0004302 277.3134 160.6126  1.00273872 37827","LAUNCH_DATE":"2006-04-20","LAUNCH_SITE":"AIR FORCE EASTERN TEST RANGE","OWNER":"SOCIÉTÉ EUROPÉENNE DES SATELLITES","ORBIT_TYPE":"Geosynchronous","OPERATIONAL_STATUS":"Operational","satInfo":{"lng":34.72247343034458,"lat":1.9994051534582424,"elevation":-6.618529850941686,"azimuth":280.27752656965544,"range":42408.80601312675,"height":35773.67381691007,"velocity":3.074967206820474},"x":204,"y":-294},{"OBJECT_ID":"2006-018A","OBJECT_NAME":"GOES 13","NORAD_CAT_ID":"29155","OBJECT_TYPE":"PAYLOAD","PERIOD":"1436.069","INCLINATION":"0.046","APOGEE":"35797.802","PERIGEE":"35774.299","ECCENTRICITY":"0.0002787","MEAN_MOTION":"1.00273733","TLE_LINE1":"1 29155U 06018A   16239.27664244 -.00000279  00000-0  00000+0 0  9991","TLE_LINE2":"2 29155   0.0460 247.7262 0002787 225.6544 246.6412  1.00273733 37603","LAUNCH_DATE":"2006-05-24","LAUNCH_SITE":"AIR FORCE EASTERN TEST RANGE","OWNER":"UNITED STATES OF AMERICA","ORBIT_TYPE":"Geosynchronous","OPERATIONAL_STATUS":"Operational","satInfo":{"lng":-90.81701974042794,"lat":-1.0683363130496113,"elevation":-9.614245572414056,"azimuth":45.81701974042788,"range":42766.77673678682,"height":35795.28443584072,"velocity":3.0745303254734533},"x":-358,"y":5},{"OBJECT_ID":"2006-020A","OBJECT_NAME":"EUTE 113 WEST A(SATMEX 6","NORAD_CAT_ID":"29162","OBJECT_TYPE":"PAYLOAD","PERIOD":"1436.085","INCLINATION":"0.0643","APOGEE":"35798.139","PERIGEE":"35774.611","ECCENTRICITY":"0.000279","MEAN_MOTION":"1.00272574","TLE_LINE1":"1 29162U 06020A   16237.38865070 -.00000061  00000-0  00000+0 0  9991","TLE_LINE2":"2 29162   0.0643 296.2139 0002790 228.9565 194.8339  1.00272574 37535","LAUNCH_DATE":"2006-05-27","LAUNCH_SITE":"FRENCH GUIANA","OWNER":"EUROPEAN TELECOMMUNICATIONS SATELLITE ORGANIZATION (EUTELSAT)","ORBIT_TYPE":"Geosynchronous","OPERATIONAL_STATUS":"Operational","satInfo":{"lng":-105.00169152839983,"lat":-2.0787571680127237,"elevation":-10.60227195496805,"azimuth":60.001691528399824,"range":42852.46492982907,"height":35770.462425964746,"velocity":3.0756964284679027},"x":-346,"y":93},{"OBJECT_ID":"2006-020B","OBJECT_NAME":"THAICOM 5","NORAD_CAT_ID":"29163","OBJECT_TYPE":"PAYLOAD","PERIOD":"1436.087","INCLINATION":"0.047","APOGEE":"35805.822","PERIGEE":"35767.005","ECCENTRICITY":"0.0004603","MEAN_MOTION":"1.00272437","TLE_LINE1":"1 29163U 06020B   16238.92584662 -.00000149  00000-0  00000+0 0  9995","TLE_LINE2":"2 29163   0.0470 280.8243 0004603 296.2147 169.3569  1.00272437 37617","LAUNCH_DATE":"2006-05-27","LAUNCH_SITE":"FRENCH GUIANA","OWNER":"THAILAND","ORBIT_TYPE":"Geosynchronous","OPERATIONAL_STATUS":"Operational","satInfo":{"lng":72.02867582064725,"lat":2.238499032996889,"elevation":-6.379009813054379,"azimuth":242.97132417935273,"range":42405.527155407566,"height":35796.995779876066,"velocity":3.0739072248635875},"x":341,"y":-110},{"OBJECT_ID":"2006-023A","OBJECT_NAME":"GALAXY 16","NORAD_CAT_ID":"29236","OBJECT_TYPE":"PAYLOAD","PERIOD":"1436.092","INCLINATION":"0.0488","APOGEE":"35797.863","PERIGEE":"35775.170","ECCENTRICITY":"0.0002691","MEAN_MOTION":"1.00272071","TLE_LINE1":"1 29236U 06023A   16238.60920390 -.00000153 +00000-0 +00000-0 0  9992","TLE_LINE2":"2 29236 000.0488 246.8559 0002691 279.0743 288.6636 01.00272071037305","LAUNCH_DATE":"2006-06-18","LAUNCH_SITE":"SEA LAUNCH","OWNER":"UNITED STATES OF AMERICA","ORBIT_TYPE":"Geosynchronous","OPERATIONAL_STATUS":"Operational","satInfo":{"lng":-104.68801806522885,"lat":-1.4223372124173357,"elevation":-9.962359339011451,"azimuth":59.6880180652288,"range":42788.51632295215,"height":35778.17346725536,"velocity":3.075403098635094},"x":-346,"y":91},{"OBJECT_ID":"2006-023B","OBJECT_NAME":"BLOCK DM-SL R/B","NORAD_CAT_ID":"29237","OBJECT_TYPE":"ROCKET BODY","PERIOD":"667.012","INCLINATION":"0.8927","APOGEE":"35635.738","PERIGEE":"2184.193","ECCENTRICITY":"0.6614088","MEAN_MOTION":"2.15887969","TLE_LINE1":"1 29237U 06023B   16238.62226272 -.00000029 +00000-0 +00000-0 0  9995","TLE_LINE2":"2 29237 000.8927 322.4846 6614088 266.6927 243.8886 02.15887969080306","LAUNCH_DATE":"2006-06-18","LAUNCH_SITE":"SEA LAUNCH","OWNER":"SEA LAUNCH DEMO","ORBIT_TYPE":"Highly Elliptical Orbit","OPERATIONAL_STATUS":"N/A, derelict rocket body","satInfo":{"lng":61.857459307732476,"lat":-0.258964470125054,"elevation":-9.10611228476764,"azimuth":253.14254069226752,"range":41332.291697225985,"height":34433.657310363575,"velocity":1.9420550319691663},"x":304,"y":-162}]